{
  "type": "FeatureCollection",
  "features": [
    {
      "type": "Feature",
      "properties": {
        "norad_id": 29994,
        "name": "FENGYUN 1C DEB",
        "group": "fengyun-1c-debris",
        "lat": 80.76557619403714,
        "lon": -58.125826736413664,
        "alt_km": 946.9533351837772,
        "timestamp": "2025-12-08T10:52:03.220636+00:00",
        "meta_object_name": "FENGYUN 1C DEB",
        "meta_object_id": "1999-025LU",
        "meta_epoch": "2025-12-07T22:47:48.363648",
        "meta_mean_motion": 14.02639749,
        "meta_eccentricity": 0.01295103,
        "meta_inclination": 98.8299,
        "meta_ra_of_asc_node": 14.3416,
        "meta_arg_of_pericenter": 227.0436,
        "meta_mean_anomaly": 203.0154,
        "meta_ephemeris_type": 0,
        "meta_classification_type": "U",
        "meta_norad_cat_id": 29994,
        "meta_element_set_no": 999,
        "meta_rev_at_epoch": 96659,
        "meta_bstar": 0.00031656364,
        "meta_mean_motion_dot": 4.82e-06,
        "meta_mean_motion_ddot": 0,
        "tle_line1": "1 29994U 99025LU  25341.94986532  .00000482  00000+0  31656-3 0  9996",
        "tle_line2": "2 29994  98.8299  14.3416 0129510 227.0436 203.0154 14.02639749966596"
      },
      "geometry": {
        "type": "Point",
        "coordinates": [
          -58.125826736413664,
          80.76557619403714
        ]
      }
    },
    {
      "type": "Feature",
      "properties": {
        "norad_id": 29996,
        "name": "FENGYUN 1C DEB",
        "group": "fengyun-1c-debris",
        "lat": 13.457599155067394,
        "lon": -158.06207774657304,
        "alt_km": 823.1049996725314,
        "timestamp": "2025-12-08T10:52:03.220646+00:00",
        "meta_object_name": "FENGYUN 1C DEB",
        "meta_object_id": "1999-025LW",
        "meta_epoch": "2025-12-07T15:55:28.674912",
        "meta_mean_motion": 14.09373734,
        "meta_eccentricity": 0.01321069,
        "meta_inclination": 99.3031,
        "meta_ra_of_asc_node": 18.8749,
        "meta_arg_of_pericenter": 102.0475,
        "meta_mean_anomaly": 20.3523,
        "meta_ephemeris_type": 0,
        "meta_classification_type": "U",
        "meta_norad_cat_id": 29996,
        "meta_element_set_no": 999,
        "meta_rev_at_epoch": 96065,
        "meta_bstar": 0.0026490488,
        "meta_mean_motion_dot": 4.965e-05,
        "meta_mean_motion_ddot": 0,
        "tle_line1": "1 29996U 99025LW  25341.66352633  .00004965  00000+0  26490-2 0  9995",
        "tle_line2": "2 29996  99.3031  18.8749 0132106 102.0475  20.3523 14.09373734960653"
      },
      "geometry": {
        "type": "Point",
        "coordinates": [
          -158.06207774657304,
          13.457599155067394
        ]
      }
    },
    {
      "type": "Feature",
      "properties": {
        "norad_id": 29997,
        "name": "FENGYUN 1C DEB",
        "group": "fengyun-1c-debris",
        "lat": -49.73819851408902,
        "lon": 3.6583462915856915,
        "alt_km": 846.8532455196155,
        "timestamp": "2025-12-08T10:52:03.220657+00:00",
        "meta_object_name": "FENGYUN 1C DEB",
        "meta_object_id": "1999-025LX",
        "meta_epoch": "2025-12-07T23:23:03.497856",
        "meta_mean_motion": 14.00860552,
        "meta_eccentricity": 0.00803118,
        "meta_inclination": 98.881,
        "meta_ra_of_asc_node": 352.5545,
        "meta_arg_of_pericenter": 340.625,
        "meta_mean_anomaly": 77.7037,
        "meta_ephemeris_type": 0,
        "meta_classification_type": "U",
        "meta_norad_cat_id": 29997,
        "meta_element_set_no": 999,
        "meta_rev_at_epoch": 96323,
        "meta_bstar": 0.0011503938,
        "meta_mean_motion_dot": 1.724e-05,
        "meta_mean_motion_ddot": 0,
        "tle_line1": "1 29997U 99025LX  25341.97434604  .00001724  00000+0  11504-2 0  9999",
        "tle_line2": "2 29997  98.8810 352.5545 0080311 340.6250  77.7037 14.00860552963239"
      },
      "geometry": {
        "type": "Point",
        "coordinates": [
          3.6583462915856915,
          -49.73819851408902
        ]
      }
    },
    {
      "type": "Feature",
      "properties": {
        "norad_id": 29998,
        "name": "FENGYUN 1C DEB",
        "group": "fengyun-1c-debris",
        "lat": 45.185029879224736,
        "lon": -127.93381439136097,
        "alt_km": 796.1026288831808,
        "timestamp": "2025-12-08T10:52:03.220667+00:00",
        "meta_object_name": "FENGYUN 1C DEB",
        "meta_object_id": "1999-025LY",
        "meta_epoch": "2025-12-07T22:28:31.369152",
        "meta_mean_motion": 14.28514122,
        "meta_eccentricity": 0.00046732,
        "meta_inclination": 99.3061,
        "meta_ra_of_asc_node": 42.0168,
        "meta_arg_of_pericenter": 315.7286,
        "meta_mean_anomaly": 44.3519,
        "meta_ephemeris_type": 0,
        "meta_classification_type": "U",
        "meta_norad_cat_id": 29998,
        "meta_element_set_no": 999,
        "meta_rev_at_epoch": 97806,
        "meta_bstar": 0.0012028612,
        "meta_mean_motion_dot": 2.966e-05,
        "meta_mean_motion_ddot": 0,
        "tle_line1": "1 29998U 99025LY  25341.93647418  .00002966  00000+0  12029-2 0  9997",
        "tle_line2": "2 29998  99.3061  42.0168 0004673 315.7286  44.3519 14.28514122978066"
      },
      "geometry": {
        "type": "Point",
        "coordinates": [
          -127.93381439136097,
          45.185029879224736
        ]
      }
    },
    {
      "type": "Feature",
      "properties": {
        "norad_id": 29999,
        "name": "FENGYUN 1C DEB",
        "group": "fengyun-1c-debris",
        "lat": 18.06949155625266,
        "lon": -35.97585639980331,
        "alt_km": 892.5857164735571,
        "timestamp": "2025-12-08T10:52:03.220677+00:00",
        "meta_object_name": "FENGYUN 1C DEB",
        "meta_object_id": "1999-025LZ",
        "meta_epoch": "2025-12-07T10:09:50.815584",
        "meta_mean_motion": 14.20123576,
        "meta_eccentricity": 0.01893719,
        "meta_inclination": 98.5759,
        "meta_ra_of_asc_node": 325.8478,
        "meta_arg_of_pericenter": 141.8878,
        "meta_mean_anomaly": 19.0669,
        "meta_ephemeris_type": 0,
        "meta_classification_type": "U",
        "meta_norad_cat_id": 29999,
        "meta_element_set_no": 999,
        "meta_rev_at_epoch": 97648,
        "meta_bstar": 0.0004351419,
        "meta_mean_motion_dot": 1.068e-05,
        "meta_mean_motion_ddot": 0,
        "tle_line1": "1 29999U 99025LZ  25341.42350481  .00001068  00000+0  43514-3 0  9999",
        "tle_line2": "2 29999  98.5759 325.8478 0189371 141.8878  19.0669 14.20123576976482"
      },
      "geometry": {
        "type": "Point",
        "coordinates": [
          -35.97585639980331,
          18.06949155625266
        ]
      }
    },
    {
      "type": "Feature",
      "properties": {
        "norad_id": 30001,
        "name": "FENGYUN 1C DEB",
        "group": "fengyun-1c-debris",
        "lat": 42.996590899086655,
        "lon": 48.85517489879808,
        "alt_km": 749.3154257975912,
        "timestamp": "2025-12-08T10:52:03.220688+00:00",
        "meta_object_name": "FENGYUN 1C DEB",
        "meta_object_id": "1999-025MA",
        "meta_epoch": "2025-12-07T23:47:53.026080",
        "meta_mean_motion": 14.38465623,
        "meta_eccentricity": 0.00385312,
        "meta_inclination": 98.9594,
        "meta_ra_of_asc_node": 56.8328,
        "meta_arg_of_pericenter": 112.5981,
        "meta_mean_anomaly": 64.437,
        "meta_ephemeris_type": 0,
        "meta_classification_type": "U",
        "meta_norad_cat_id": 30001,
        "meta_element_set_no": 999,
        "meta_rev_at_epoch": 97363,
        "meta_bstar": 0.0034485564,
        "meta_mean_motion_dot": 0.00010589,
        "meta_mean_motion_ddot": 0,
        "tle_line1": "1 30001U 99025MA  25341.99158595  .00010589  00000+0  34486-2 0  9994",
        "tle_line2": "2 30001  98.9594  56.8328 0038531 112.5981  64.4370 14.38465623973633"
      },
      "geometry": {
        "type": "Point",
        "coordinates": [
          48.85517489879808,
          42.996590899086655
        ]
      }
    },
    {
      "type": "Feature",
      "properties": {
        "norad_id": 30003,
        "name": "FENGYUN 1C DEB",
        "group": "fengyun-1c-debris",
        "lat": -51.87971056312224,
        "lon": -30.416086743979307,
        "alt_km": 1055.5436443893323,
        "timestamp": "2025-12-08T10:52:03.220698+00:00",
        "meta_object_name": "FENGYUN 1C DEB",
        "meta_object_id": "1999-025MC",
        "meta_epoch": "2025-12-07T21:31:53.810976",
        "meta_mean_motion": 13.85618228,
        "meta_eccentricity": 0.01432585,
        "meta_inclination": 99.5762,
        "meta_ra_of_asc_node": 316.5926,
        "meta_arg_of_pericenter": 132.6469,
        "meta_mean_anomaly": 284.0777,
        "meta_ephemeris_type": 0,
        "meta_classification_type": "U",
        "meta_norad_cat_id": 30003,
        "meta_element_set_no": 999,
        "meta_rev_at_epoch": 95421,
        "meta_bstar": 0.00035855408,
        "meta_mean_motion_dot": 3.98e-06,
        "meta_mean_motion_ddot": 0,
        "tle_line1": "1 30003U 99025MC  25341.89715059  .00000398  00000+0  35855-3 0  9998",
        "tle_line2": "2 30003  99.5762 316.5926 0143258 132.6469 284.0777 13.85618228954212"
      },
      "geometry": {
        "type": "Point",
        "coordinates": [
          -30.416086743979307,
          -51.87971056312224
        ]
      }
    }
  ]
}